[{"OBJECT_NAME":"ONEWEB-0588","OBJECT_ID":"2023-004P","EPOCH":"2026-01-24T04:04:49.697760","MEAN_MOTION":13.18686559,"ECCENTRICITY":0.00020921,"INCLINATION":87.9189,"RA_OF_ASC_NODE":4.0727,"ARG_OF_PERICENTER":95.759,"MEAN_ANOMALY":264.3781,"EPHEMERIS_TYPE":0,"CLASSIFICATION_TYPE":"U","NORAD_CAT_ID":55153,"ELEMENT_SET_NO":999,"REV_AT_EPOCH":15071,"BSTAR":5.4592102e-5,"MEAN_MOTION_DOT":3.4e-7,"MEAN_MOTION_DDOT":0},{"OBJECT_NAME":"ONEWEB-0598","OBJECT_ID":"2023-004Q","EPOCH":"2026-01-24T08:10:48.752256","MEAN_MOTION":13.11420035,"ECCENTRICITY":0.00014394,"INCLINATION":87.8818,"RA_OF_ASC_NODE":49.7042,"ARG_OF_PERICENTER":110.6458,"MEAN_ANOMALY":249.4824,"EPHEMERIS_TYPE":0,"CLASSIFICATION_TYPE":"U","NORAD_CAT_ID":55154,"ELEMENT_SET_NO":999,"REV_AT_EPOCH":14704,"BSTAR":4.7650801e-5,"MEAN_MOTION_DOT":3.0e-7,"MEAN_MOTION_DDOT":0},{"OBJECT_NAME":"ONEWEB-0599","OBJECT_ID":"2023-004R","EPOCH":"2026-01-23T23:22:31.935936","MEAN_MOTION":13.17651546,"ECCENTRICITY":0.0001607,"INCLINATION":87.9087,"RA_OF_ASC_NODE":34.526,"ARG_OF_PERICENTER":91.1249,"MEAN_ANOMALY":269.0067,"EPHEMERIS_TYPE":0,"CLASSIFICATION_TYPE":"U","NORAD_CAT_ID":55155,"ELEMENT_SET_NO":999,"REV_AT_EPOCH":14849,"BSTAR":0.00010625,"MEAN_MOTION_DOT":5.4e-7,"MEAN_MOTION_DDOT":0},{"OBJECT_NAME":"ONEWEB-0614","OBJECT_ID":"2023-004S","EPOCH":"2026-01-24T08:03:29.576736","MEAN_MOTION":13.11418608,"ECCENTRICITY":0.00021757,"INCLINATION":87.8817,"RA_OF_ASC_NODE":49.7138,"ARG_OF_PERICENTER":93.5359,"MEAN_ANOMALY":266.6018,"EPHEMERIS_TYPE":0,"CLASSIFICATION_TYPE":"U","NORAD_CAT_ID":55156,"ELEMENT_SET_NO":999,"REV_AT_EPOCH":14698,"BSTAR":-0.00084043166,"MEAN_MOTION_DOT":-2.85e-6,"MEAN_MOTION_DDOT":0},{"OBJECT_NAME":"ONEWEB-0616","OBJECT_ID":"2023-004T","EPOCH":"2026-01-23T18:55:15.020256","MEAN_MOTION":13.17651157,"ECCENTRICITY":0.00012631,"INCLINATION":87.9094,"RA_OF_ASC_NODE":34.5589,"ARG_OF_PERICENTER":60.3936,"MEAN_ANOMALY":299.7322,"EPHEMERIS_TYPE":0,"CLASSIFICATION_TYPE":"U","NORAD_CAT_ID":55157,"ELEMENT_SET_NO":999,"REV_AT_EPOCH":14868,"BSTAR":0.00019485305,"MEAN_MOTION_DOT":8.9e-7,"MEAN_MOTION_DDOT":0},{"OBJECT_NAME":"ONEWEB-0617","OBJECT_ID":"2023-004U","EPOCH":"2026-01-24T02:16:47.764992","MEAN_MOTION":13.1141764,"ECCENTRICITY":0.00021453,"INCLINATION":87.8819,"RA_OF_ASC_NODE":49.7425,"ARG_OF_PERICENTER":100.4744,"MEAN_ANOMALY":259.6625,"EPHEMERIS_TYPE":0,"CLASSIFICATION_TYPE":"U","NORAD_CAT_ID":55158,"ELEMENT_SET_NO":999,"REV_AT_EPOCH":14697,"BSTAR":-0.0013938391,"MEAN_MOTION_DOT":-4.81e-6,"MEAN_MOTION_DDOT":0},{"OBJECT_NAME":"ONEWEB-0618","OBJECT_ID":"2023-004V","EPOCH":"2026-01-24T01:53:15.149184","MEAN_MOTION":15.11401065,"ECCENTRICITY":0.00149782,"INCLINATION":86.9034,"RA_OF_ASC_NODE":236.0789,"ARG_OF_PERICENTER":104.708,"MEAN_ANOMALY":255.582,"EPHEMERIS_TYPE":0,"CLASSIFICATION_TYPE":"U","NORAD_CAT_ID":55159,"ELEMENT_SET_NO":999,"REV_AT_EPOCH":16048,"BSTAR":0.00050760876,"MEAN_MOTION_DOT":8.623e-5,"MEAN_MOTION_DDOT":0},{"OBJECT_NAME":"ONEWEB-0619","OBJECT_ID":"2023-004W","EPOCH":"2026-01-24T06:37:31.144224","MEAN_MOTION":13.17649675,"ECCENTRICITY":0.00021049,"INCLINATION":87.9095,"RA_OF_ASC_NODE":34.4349,"ARG_OF_PERICENTER":79.511,"MEAN_ANOMALY":280.6258,"EPHEMERIS_TYPE":0,"CLASSIFICATION_TYPE":"U","NORAD_CAT_ID":55160,"ELEMENT_SET_NO":999,"REV_AT_EPOCH":14864,"BSTAR":1.3395712e-5,"MEAN_MOTION_DOT":1.8e-7,"MEAN_MOTION_DDOT":0},{"OBJECT_NAME":"ONEWEB-0620","OBJECT_ID":"2023-004X","EPOCH":"2026-01-24T07:39:04.326048","MEAN_MOTION":13.11416628,"ECCENTRICITY":0.00018584,"INCLINATION":87.8817,"RA_OF_ASC_NODE":49.7165,"ARG_OF_PERICENTER":103.571,"MEAN_ANOMALY":256.5625,"EPHEMERIS_TYPE":0,"CLASSIFICATION_TYPE":"U","NORAD_CAT_ID":55161,"ELEMENT_SET_NO":999,"REV_AT_EPOCH":14697,"BSTAR":-0.0014209925,"MEAN_MOTION_DOT":-4.91e-6,"MEAN_MOTION_DDOT":0},{"OBJECT_NAME":"ONEWEB-0621","OBJECT_ID":"2023-004Y","EPOCH":"2026-01-24T02:48:32.854752","MEAN_MOTION":13.11417532,"ECCENTRICITY":0.0002054,"INCLINATION":87.8827,"RA_OF_ASC_NODE":49.7318,"ARG_OF_PERICENTER":91.0689,"MEAN_ANOMALY":269.0674,"EPHEMERIS_TYPE":0,"CLASSIFICATION_TYPE":"U","NORAD_CAT_ID":55162,"ELEMENT_SET_NO":999,"REV_AT_EPOCH":14692,"BSTAR":0.00058321821,"MEAN_MOTION_DOT":2.19e-6,"MEAN_MOTION_DDOT":0},{"OBJECT_NAME":"ONEWEB-0622","OBJECT_ID":"2023-004Z","EPOCH":"2026-01-23T19:36:23.621184","MEAN_MOTION":13.11419883,"ECCENTRICITY":0.00025461,"INCLINATION":87.8821,"RA_OF_ASC_NODE":49.7969,"ARG_OF_PERICENTER":102.8602,"MEAN_ANOMALY":257.281,"EPHEMERIS_TYPE":0,"CLASSIFICATION_TYPE":"U","NORAD_CAT_ID":55163,"ELEMENT_SET_NO":999,"REV_AT_EPOCH":14687,"BSTAR":0.001314337,"MEAN_MOTION_DOT":4.79e-6,"MEAN_MOTION_DDOT":0},{"OBJECT_NAME":"ONEWEB-0623","OBJECT_ID":"2023-004AA","EPOCH":"2026-01-24T06:30:13.796928","MEAN_MOTION":13.17650208,"ECCENTRICITY":0.00025867,"INCLINATION":87.9083,"RA_OF_ASC_NODE":34.4821,"ARG_OF_PERICENTER":87.8872,"MEAN_ANOMALY":272.2555,"EPHEMERIS_TYPE":0,"CLASSIFICATION_TYPE":"U","NORAD_CAT_ID":55164,"ELEMENT_SET_NO":999,"REV_AT_EPOCH":14863,"BSTAR":-0.00025489033,"MEAN_MOTION_DOT":-8.6e-7,"MEAN_MOTION_DDOT":0},{"OBJECT_NAME":"ONEWEB-0624","OBJECT_ID":"2023-004AB","EPOCH":"2026-01-24T05:39:31.531968","MEAN_MOTION":13.12922951,"ECCENTRICITY":0.00020872,"INCLINATION":87.8926,"RA_OF_ASC_NODE":19.1911,"ARG_OF_PERICENTER":88.7228,"MEAN_ANOMALY":271.414,"EPHEMERIS_TYPE":0,"CLASSIFICATION_TYPE":"U","NORAD_CAT_ID":55165,"ELEMENT_SET_NO":999,"REV_AT_EPOCH":14918,"BSTAR":-0.0012235771,"MEAN_MOTION_DOT":-4.31e-6,"MEAN_MOTION_DDOT":0},{"OBJECT_NAME":"ONEWEB-0625","OBJECT_ID":"2023-004AC","EPOCH":"2026-01-24T06:15:39.328704","MEAN_MOTION":13.17649035,"ECCENTRICITY":0.00017105,"INCLINATION":87.9082,"RA_OF_ASC_NODE":34.478,"ARG_OF_PERICENTER":85.3754,"MEAN_ANOMALY":274.7573,"EPHEMERIS_TYPE":0,"CLASSIFICATION_TYPE":"U","NORAD_CAT_ID":55166,"ELEMENT_SET_NO":999,"REV_AT_EPOCH":14862,"BSTAR":-1.6056344e-5,"MEAN_MOTION_DOT":7.0e-8,"MEAN_MOTION_DDOT":0},{"OBJECT_NAME":"ONEWEB-0626","OBJECT_ID":"2023-004AD","EPOCH":"2026-01-24T02:22:22.283328","MEAN_MOTION":13.17649529,"ECCENTRICITY":0.00016166,"INCLINATION":87.9085,"RA_OF_ASC_NODE":34.5109,"ARG_OF_PERICENTER":105.469,"MEAN_ANOMALY":254.662,"EPHEMERIS_TYPE":0,"CLASSIFICATION_TYPE":"U","NORAD_CAT_ID":55167,"ELEMENT_SET_NO":999,"REV_AT_EPOCH":14860,"BSTAR":-2.9411394e-5,"MEAN_MOTION_DOT":1.0e-8,"MEAN_MOTION_DDOT":0},{"OBJECT_NAME":"ONEWEB-0627","OBJECT_ID":"2023-004AE","EPOCH":"2026-01-24T07:33:23.412384","MEAN_MOTION":13.17651196,"ECCENTRICITY":0.00024089,"INCLINATION":87.9082,"RA_OF_ASC_NODE":34.4677,"ARG_OF_PERICENTER":92.1628,"MEAN_ANOMALY":267.978,"EPHEMERIS_TYPE":0,"CLASSIFICATION_TYPE":"U","NORAD_CAT_ID":55168,"ELEMENT_SET_NO":999,"REV_AT_EPOCH":14863,"BSTAR":0.00013374409,"MEAN_MOTION_DOT":6.5e-7,"MEAN_MOTION_DDOT":0},{"OBJECT_NAME":"ONEWEB-0628","OBJECT_ID":"2023-004AF","EPOCH":"2026-01-24T05:46:23.251296","MEAN_MOTION":13.1244224,"ECCENTRICITY":0.00025179,"INCLINATION":87.894,"RA_OF_ASC_NODE":19.2281,"ARG_OF_PERICENTER":81.7526,"MEAN_ANOMALY":278.3888,"EPHEMERIS_TYPE":0,"CLASSIFICATION_TYPE":"U","NORAD_CAT_ID":55169,"ELEMENT_SET_NO":999,"REV_AT_EPOCH":14915,"BSTAR":-0.0011713494,"MEAN_MOTION_DOT":-4.09e-6,"MEAN_MOTION_DDOT":0}]
