ONEWEB-0588             
1 55153U 23004P   26024.17001965  .00000034  00000+0  54592-4 0  9996
2 55153  87.9189   4.0727 0002092  95.7590 264.3781 13.18686559150718
ONEWEB-0598             
1 55154U 23004Q   26024.34084204  .00000030  00000+0  47651-4 0  9997
2 55154  87.8818  49.7042 0001439 110.6458 249.4824 13.11420035147049
ONEWEB-0599             
1 55155U 23004R   26023.97398074  .00000054  00000+0  10625-3 0  9995
2 55155  87.9087  34.5260 0001607  91.1249 269.0067 13.17651546148497
ONEWEB-0614             
1 55156U 23004S   26024.33575899 -.00000285  00000+0 -84043-3 0  9992
2 55156  87.8817  49.7138 0002175  93.5359 266.6018 13.11418608146984
ONEWEB-0616             
1 55157U 23004T   26023.78836829  .00000089  00000+0  19485-3 0  9992
2 55157  87.9094  34.5589 0001263  60.3936 299.7322 13.17651157148683
ONEWEB-0617             
1 55158U 23004U   26024.09499728 -.00000481  00000+0 -13938-2 0  9995
2 55158  87.8819  49.7425 0002145 100.4744 259.6625 13.11417640146970
ONEWEB-0618             
1 55159U 23004V   26024.07864756  .00008623  00000+0  50761-3 0  9991
2 55159  86.9034 236.0789 0014978 104.7080 255.5820 15.11401065160481
ONEWEB-0619             
1 55160U 23004W   26024.27605491  .00000018  00000+0  13396-4 0  9998
2 55160  87.9095  34.4349 0002104  79.5110 280.6258 13.17649675148647
ONEWEB-0620             
1 55161U 23004X   26024.31880007 -.00000491  00000+0 -14210-2 0  9993
2 55161  87.8817  49.7165 0001858 103.5710 256.5625 13.11416628146971
ONEWEB-0621             
1 55162U 23004Y   26024.11704693  .00000219  00000+0  58322-3 0  9997
2 55162  87.8827  49.7318 0002054  91.0689 269.0674 13.11417532146921
ONEWEB-0622             
1 55163U 23004Z   26023.81694006  .00000479  00000+0  13143-2 0  9999
2 55163  87.8821  49.7969 0002546 102.8602 257.2810 13.11419883146876
ONEWEB-0623             
1 55164U 23004AA  26024.27099302 -.00000086  00000+0 -25489-3 0  9992
2 55164  87.9083  34.4821 0002586  87.8872 272.2555 13.17650208148634
ONEWEB-0624             
1 55165U 23004AB  26024.23578162 -.00000431  00000+0 -12236-2 0  9994
2 55165  87.8926  19.1911 0002087  88.7228 271.4140 13.12922951149185
ONEWEB-0625             
1 55166U 23004AC  26024.26087186  .00000007  00000+0 -16056-4 0  9993
2 55166  87.9082  34.4780 0001710  85.3754 274.7573 13.17649035148621
ONEWEB-0626             
1 55167U 23004AD  26024.09886902  .00000001  00000+0 -29411-4 0  9991
2 55167  87.9085  34.5109 0001616 105.4690 254.6620 13.17649529148605
ONEWEB-0627             
1 55168U 23004AE  26024.31485431  .00000065  00000+0  13374-3 0  9998
2 55168  87.9082  34.4677 0002408  92.1628 267.9780 13.17651196148635
ONEWEB-0628             
1 55169U 23004AF  26024.24054689 -.00000409  00000+0 -11713-2 0  9996
2 55169  87.8940  19.2281 0002517  81.7526 278.3888 13.12442240149158
